{"type": "FeatureCollection", "features": [ {"type": "Feature", "properties": {"norad_id": 66052, "name": "HRC MONOBLOCK CAMERA", "group": "stations", "lat": -8.768615643304038, "lon": 79.77596118104897, "alt_km": 404.8677267900275, "timestamp": "2025-12-23T16:57:11.095336+00:00", "meta": {"OBJECT_NAME": "HRC MONOBLOCK CAMERA", "OBJECT_ID": "1998-067XR", "EPOCH": "2025-12-23T06:12:12.769632", "MEAN_MOTION": 15.5485157, "ECCENTRICITY": 0.00022312, "INCLINATION": 51.6307, "RA_OF_ASC_NODE": 89.0322, "ARG_OF_PERICENTER": 234.8105, "MEAN_ANOMALY": 125.2677, "EPHEMERIS_TYPE": 0, "CLASSIFICATION_TYPE": "U", "NORAD_CAT_ID": 66052, "ELEMENT_SET_NO": 999, "REV_AT_EPOCH": 1047, "BSTAR": 0.00054431757, "MEAN_MOTION_DOT": 0.00036687, "MEAN_MOTION_DDOT": 0}, "tle": {"line1": "1 66052U 98067XR  25357.25848113  .00036687  00000+0  54432-3 0  9993", "line2": "2 66052  51.6307  89.0322 0002231 234.8105 125.2677 15.54851570 10471"}}, "geometry": {"type": "Point", "coordinates": [79.77596118104897, -8.768615643304038]}}, {"type": "Feature", "properties": {"norad_id": 66174, "name": "HTV-X1", "group": "stations", "lat": 36.51707571429862, "lon": 124.08320664988554, "alt_km": 413.58717173320383, "timestamp": "2025-12-23T16:57:11.095346+00:00", "meta": {"OBJECT_NAME": "HTV-X1", "OBJECT_ID": "2025-241A", "EPOCH": "2025-12-23T04:21:36.091008", "MEAN_MOTION": 15.49746572, "ECCENTRICITY": 0.00031904, "INCLINATION": 51.6323, "RA_OF_ASC_NODE": 90.7678, "ARG_OF_PERICENTER": 289.6661, "MEAN_ANOMALY": 70.3984, "EPHEMERIS_TYPE": 0, "CLASSIFICATION_TYPE": "U", "NORAD_CAT_ID": 66174, "ELEMENT_SET_NO": 999, "REV_AT_EPOCH": 51, "BSTAR": 0.00021350548, "MEAN_MOTION_DOT": 0.00011641, "MEAN_MOTION_DDOT": 0}, "tle": {"line1": "1 66174U 25241A   25357.18166772  .00011641  00000+0  21351-3 0  9995", "line2": "2 66174  51.6323  90.7678 0003190 289.6661  70.3984 15.49746572   511"}}, "geometry": {"type": "Point", "coordinates": [124.08320664988554, 36.51707571429862]}}, {"type": "Feature", "properties": {"norad_id": 66515, "name": "SZ-21 MODULE", "group": "stations", "lat": -41.41498990031273, "lon": -143.9700106586276, "alt_km": 379.9073062676489, "timestamp": "2025-12-23T16:57:11.095356+00:00", "meta": {"OBJECT_NAME": "SZ-21 MODULE", "OBJECT_ID": "2025-246C", "EPOCH": "2025-12-23T05:04:42.753216", "MEAN_MOTION": 15.63016962, "ECCENTRICITY": 0.00050368, "INCLINATION": 41.4769, "RA_OF_ASC_NODE": 312.1416, "ARG_OF_PERICENTER": 316.3209, "MEAN_ANOMALY": 43.7232, "EPHEMERIS_TYPE": 0, "CLASSIFICATION_TYPE": "U", "NORAD_CAT_ID": 66515, "ELEMENT_SET_NO": 999, "REV_AT_EPOCH": 608, "BSTAR": 0.00030579963, "MEAN_MOTION_DOT": 0.00028357, "MEAN_MOTION_DDOT": 0}, "tle": {"line1": "1 66515U 25246C   25357.21160594  .00028357  00000+0  30580-3 0  9995", "line2": "2 66515  41.4769 312.1416 0005036 316.3209  43.7232 15.63016962  6086"}}, "geometry": {"type": "Point", "coordinates": [-143.9700106586276, -41.41498990031273]}}, {"type": "Feature", "properties": {"norad_id": 66645, "name": "SHENZHOU-22", "group": "stations", "lat": -28.775146232494485, "lon": 168.55965487887147, "alt_km": 392.07552719299656, "timestamp": "2025-12-23T16:57:11.095367+00:00", "meta": {"OBJECT_NAME": "SHENZHOU-22", "OBJECT_ID": "2025-272A", "EPOCH": "2025-12-23T06:45:56.635200", "MEAN_MOTION": 15.59596422, "ECCENTRICITY": 0.0007971, "INCLINATION": 41.4686, "RA_OF_ASC_NODE": 312.6856, "ARG_OF_PERICENTER": 124.3462, "MEAN_ANOMALY": 235.8132, "EPHEMERIS_TYPE": 0, "CLASSIFICATION_TYPE": "U", "NORAD_CAT_ID": 66645, "ELEMENT_SET_NO": 999, "REV_AT_EPOCH": 26550, "BSTAR": 0.00022671035, "MEAN_MOTION_DOT": 0.00018298, "MEAN_MOTION_DDOT": 0}, "tle": {"line1": "1 66645U 25272A   25357.28190550  .00018298  00000+0  22671-3 0  9995", "line2": "2 66645  41.4686 312.6856 0007971 124.3462 235.8132 15.59596422265505"}}, "geometry": {"type": "Point", "coordinates": [168.55965487887147, -28.775146232494485]}}, {"type": "Feature", "properties": {"norad_id": 66664, "name": "SOYUZ-MS 28", "group": "stations", "lat": 36.5170769460814, "lon": 124.08320851369513, "alt_km": 413.5871716022193, "timestamp": "2025-12-23T16:57:11.095376+00:00", "meta": {"OBJECT_NAME": "SOYUZ-MS 28", "OBJECT_ID": "2025-275A", "EPOCH": "2025-12-23T04:21:36.091008", "MEAN_MOTION": 15.49746572, "ECCENTRICITY": 0.00031904, "INCLINATION": 51.6323, "RA_OF_ASC_NODE": 90.7678, "ARG_OF_PERICENTER": 289.6661, "MEAN_ANOMALY": 70.3984, "EPHEMERIS_TYPE": 0, "CLASSIFICATION_TYPE": "U", "NORAD_CAT_ID": 66664, "ELEMENT_SET_NO": 999, "REV_AT_EPOCH": 128, "BSTAR": 0.00021350548, "MEAN_MOTION_DOT": 0.00011641, "MEAN_MOTION_DDOT": 0}, "tle": {"line1": "1 66664U 25275A   25357.18166772  .00011641  00000+0  21351-3 0  9996", "line2": "2 66664  51.6323  90.7678 0003190 289.6661  70.3984 15.49746572  1280"}}, "geometry": {"type": "Point", "coordinates": [124.08320851369513, 36.5170769460814]}}, {"type": "Feature", "properties": {"norad_id": 66906, "name": "1998-067XS", "group": "stations", "lat": 38.910119428582384, "lon": -131.74820512433635, "alt_km": 409.3721393754777, "timestamp": "2025-12-23T16:57:11.095387+00:00", "meta": {"OBJECT_NAME": "1998-067XS", "OBJECT_ID": "1998-067XS", "EPOCH": "2025-12-22T11:01:48.942336", "MEAN_MOTION": 15.51071617, "ECCENTRICITY": 0.00028954, "INCLINATION": 51.6319, "RA_OF_ASC_NODE": 94.197, "ARG_OF_PERICENTER": 250.8689, "MEAN_ANOMALY": 109.1987, "EPHEMERIS_TYPE": 0, "CLASSIFICATION_TYPE": "U", "NORAD_CAT_ID": 66906, "ELEMENT_SET_NO": 999, "REV_AT_EPOCH": 312, "BSTAR": 0.00051361561, "MEAN_MOTION_DOT": 0.00030106, "MEAN_MOTION_DDOT": 0}, "tle": {"line1": "1 66906U 98067XS  25356.45959424  .00030106  00000+0  51362-3 0  9999", "line2": "2 66906  51.6319  94.1970 0002895 250.8689 109.1987 15.51071617  3121"}}, "geometry": {"type": "Point", "coordinates": [-131.74820512433635, 38.910119428582384]}}, {"type": "Feature", "properties": {"norad_id": 66907, "name": "1998-067XT", "group": "stations", "lat": -9.153205432139371, "lon": -84.79493747919098, "alt_km": 410.90064258296843, "timestamp": "2025-12-23T16:57:11.095398+00:00", "meta": {"OBJECT_NAME": "1998-067XT", "OBJECT_ID": "1998-067XT", "EPOCH": "2025-12-22T07:41:32.890848", "MEAN_MOTION": 15.52583192, "ECCENTRICITY": 0.00038425, "INCLINATION": 51.6311, "RA_OF_ASC_NODE": 94.7687, "ARG_OF_PERICENTER": 286.1212, "MEAN_ANOMALY": 73.9355, "EPHEMERIS_TYPE": 0, "CLASSIFICATION_TYPE": "U", "NORAD_CAT_ID": 66907, "ELEMENT_SET_NO": 999, "REV_AT_EPOCH": 310, "BSTAR": 0.0011084243, "MEAN_MOTION_DOT": 0.00069527, "MEAN_MOTION_DDOT": 0}, "tle": {"line1": "1 66907U 98067XT  25356.32051957  .00069527  00000+0  11084-2 0  9995", "line2": "2 66907  51.6311  94.7687 0003842 286.1212  73.9355 15.52583192  3104"}}, "geometry": {"type": "Point", "coordinates": [-84.79493747919098, -9.153205432139371]}}, {"type": "Feature", "properties": {"norad_id": 66908, "name": "1998-067XU", "group": "stations", "lat": -13.454967920976149, "lon": -81.2150218119785, "alt_km": 410.7348918810676, "timestamp": "2025-12-23T16:57:11.095408+00:00", "meta": {"OBJECT_NAME": "1998-067XU", "OBJECT_ID": "1998-067XU", "EPOCH": "2025-12-22T12:18:16.541280", "MEAN_MOTION": 15.52707663, "ECCENTRICITY": 0.00038713, "INCLINATION": 51.631, "RA_OF_ASC_NODE": 93.8007, "ARG_OF_PERICENTER": 283.9304, "MEAN_ANOMALY": 76.1255, "EPHEMERIS_TYPE": 0, "CLASSIFICATION_TYPE": "U", "NORAD_CAT_ID": 66908, "ELEMENT_SET_NO": 999, "REV_AT_EPOCH": 313, "BSTAR": 0.0010107547, "MEAN_MOTION_DOT": 0.00063598, "MEAN_MOTION_DDOT": 0}, "tle": {"line1": "1 66908U 98067XU  25356.51269145  .00063598  00000+0  10108-2 0  9995", "line2": "2 66908  51.6310  93.8007 0003871 283.9304  76.1255 15.52707663  3137"}}, "geometry": {"type": "Point", "coordinates": [-81.2150218119785, -13.454967920976149]}}, {"type": "Feature", "properties": {"norad_id": 66909, "name": "SILVERSAT", "group": "stations", "lat": -19.442607849210326, "lon": -75.91685672086348, "alt_km": 410.5221290342115, "timestamp": "2025-12-23T16:57:11.095421+00:00", "meta": {"OBJECT_NAME": "SILVERSAT", "OBJECT_ID": "1998-067XV", "EPOCH": "2025-12-22T12:16:28.422912", "MEAN_MOTION": 15.52898333, "ECCENTRICITY": 0.0003866, "INCLINATION": 51.6306, "RA_OF_ASC_NODE": 93.7929, "ARG_OF_PERICENTER": 288.2093, "MEAN_ANOMALY": 71.8476, "EPHEMERIS_TYPE": 0, "CLASSIFICATION_TYPE": "U", "NORAD_CAT_ID": 66909, "ELEMENT_SET_NO": 999, "REV_AT_EPOCH": 313, "BSTAR": 0.0011325313, "MEAN_MOTION_DOT": 0.00071888, "MEAN_MOTION_DDOT": 0}, "tle": {"line1": "1 66909U 98067XV  25356.51144008  .00071888  00000+0  11325-2 0  9999", "line2": "2 66909  51.6306  93.7929 0003866 288.2093  71.8476 15.52898333  3134"}}, "geometry": {"type": "Point", "coordinates": [-75.91685672086348, -19.442607849210326]}}, {"type": "Feature", "properties": {"norad_id": 66910, "name": "1998-067XW", "group": "stations", "lat": -26.5574675113978, "lon": -68.84568516490071, "alt_km": 409.7508998905005, "timestamp": "2025-12-23T16:57:11.095431+00:00", "meta": {"OBJECT_NAME": "1998-067XW", "OBJECT_ID": "1998-067XW", "EPOCH": "2025-12-23T06:45:57.042144", "MEAN_MOTION": 15.52963068, "ECCENTRICITY": 0.00039303, "INCLINATION": 51.6302, "RA_OF_ASC_NODE": 89.9385, "ARG_OF_PERICENTER": 266.0255, "MEAN_ANOMALY": 94.0285, "EPHEMERIS_TYPE": 0, "CLASSIFICATION_TYPE": "U", "NORAD_CAT_ID": 66910, "ELEMENT_SET_NO": 999, "REV_AT_EPOCH": 325, "BSTAR": 0.0010076721, "MEAN_MOTION_DOT": 0.00063997, "MEAN_MOTION_DDOT": 0}, "tle": {"line1": "1 66910U 98067XW  25357.28191021  .00063997  00000+0  10077-2 0  9998", "line2": "2 66910  51.6302  89.9385 0003930 266.0255  94.0285 15.52963068  3257"}}, "geometry": {"type": "Point", "coordinates": [-68.84568516490071, -26.5574675113978]}}]}